{
  "addressBook": [
    {
      "id": 1,
      "name": "Felix Brown",
      "street": "158 Maple Avenue",
      "room": "",
      "city": "Vienna",
      "state": "VA",
      "zip": "22180"
    },
    {
      "id": 2,
      "name": "Ashley Porter",
      "street": "1986 Constitution Drive",
      "room": "",
      "city": "Chicago",
      "state": "IL",
      "zip": "60007"
    },
    {
      "id": 3,
      "name": "Daniel Johnson",
      "street": "8574 Camelot Road",
      "room": "Apt 5",
      "city": "Denver",
      "state": "CO",
      "zip": "80121"
    },
    {
      "name": "Maria Garcia",
      "street": "659 Olive Street",
      "room": "Apt B",
      "city": "Detroit",
      "state": "MI",
      "zip": "48127",
      "id": 4
    },
    {
      "name": "John Moore",
      "street": "52989 Laurel Lane",
      "city": "Chicago",
      "state": "IL",
      "zip": "60601",
      "id": 5,
      "room": "Apt 1775"
    },
    {
      "name": "Alex Lee",
      "street": "19775 Franklin Court",
      "room": "",
      "city": "Chicago",
      "state": "IL",
      "zip": "60131",
      "id": 6
    },
    {
      "name": "Louisa Flores",
      "street": "5478 King Street",
      "room": "Apt 12",
      "city": "Miami",
      "state": "FL",
      "zip": "33101",
      "id": 7
    },
    {
      "name": "George Campbell",
      "street": "16 Andover Court",
      "room": "Apt 3",
      "city": "Miami",
      "state": "FL",
      "zip": "33127",
      "id": 8
    },
    {
      "name": "Steven Walker",
      "street": "4569 River Street",
      "room": "Apt D",
      "city": "Orlando",
      "state": "FL",
      "zip": "32789",
      "id": 9
    },
    {
      "street": "12225 Jefferson Avenue",
      "name": "Michael Evans",
      "city": "Richmond",
      "state": "VA",
      "zip": "23173",
      "room": "Apt A",
      "id": 10
    },
    {
      "name": "William Turner",
      "street": "5585 Broad Street",
      "room": "",
      "city": "Los Angeles",
      "state": "CA",
      "zip": "90012",
      "id": 11
    },
    {
      "name": "Adam Cox",
      "street": "77485 Charles Street",
      "room": "Apt 10",
      "city": "Los Angeles",
      "state": "CA",
      "zip": "90007",
      "id": 12
    },
    {
      "name": "Linda Myers",
      "city": "Petoskey",
      "state": "MI",
      "zip": "49770",
      "street": "65855 Andover Street",
      "id": 13
    },
    {
      "name": "Ezekiel Addams",
      "street": "9526 Highland Drive",
      "room": "",
      "city": "Kansas City",
      "state": "MO",
      "zip": "64105",
      "id": 14
    },
    {
      "zip": "80201",
      "city": "Denver",
      "state": "CO",
      "name": "Lauren Price",
      "street": "16 Madison Avenue",
      "id": 15
    },
    {
      "name": "Catherine Kim",
      "street": "1412 Baker Street",
      "room": "Apt 6",
      "city": "New York",
      "state": "NY",
      "zip": "10010",
      "id": 16
    },
    {
      "name": "Jason Nguyen",
      "street": "89 Madison Avenue",
      "room": "",
      "city": "New York",
      "state": "NY",
      "zip": "10014",
      "id": 17
    },
    {
      "name": "Amy Wright",
      "street": "856 John Street",
      "room": "",
      "city": "Washington",
      "state": "DC",
      "zip": "20011",
      "id": 18
    },
    {
      "name": "Sally Parker",
      "street": "26 Monroe Street",
      "room": "",
      "city": "Baton Rouge",
      "state": "LA",
      "zip": "70806",
      "id": 19
    },
    {
      "name": "Don Thompson",
      "street": "564 Warren Avenue",
      "room": "",
      "city": "Baton Rouge",
      "state": "LA",
      "zip": "70803",
      "id": 20
    },
    {
      "name": "Mark  Harris",
      "street": "45554  Atlantic Avenue",
      "room": "",
      "city": "Boston",
      "state": "MA",
      "zip": "02110",
      "id": 21
    },
    {
      "name": "Roderick Ayler",
      "street": "8595 Harbor Street",
      "room": "Apt 7",
      "city": "Baltimore",
      "state": "MD",
      "zip": "21208",
      "id": 22
    },
    {
      "name": "Rachel White",
      "street": "8 Kalakaua Avenue",
      "room": "",
      "city": "Honolulu",
      "state": "HI",
      "zip": "96803",
      "id": 23
    },
    {
      "name": "Kai Kahale",
      "street": "36 King Street",
      "room": "",
      "city": "Honolulu",
      "state": "HI",
      "zip": "96804",
      "id": 24
    },
    {
      "name": "Maria Sanchez",
      "street": "3223 Madison Street",
      "room": "Apt 19",
      "city": "Alexandria",
      "state": "VA",
      "zip": "22305",
      "id": 25
    },
    {
      "name": "Stephanie Hall",
      "street": "45 Linden Street",
      "room": "",
      "city": "Alexandria",
      "state": "VA",
      "zip": "22311",
      "id": 26
    },
    {
      "name": "George Bailey",
      "street": "79 Williams Street",
      "room": "Apt 2",
      "city": "Santa Fe",
      "state": "NM",
      "zip": "87505",
      "id": 27
    },
    {
      "name": "Luis Castillo",
      "city": "Seattle",
      "state": "WA",
      "zip": "98116",
      "street": "56 Forest Drive",
      "id": 28
    },
    {
      "name": "Sai Patel",
      "street": "77485 Devon Court",
      "room": "",
      "city": "Augusta",
      "state": "ME",
      "zip": "30904",
      "id": 29
    },
    {
      "name": "Harry Peterson",
      "city": "Houston",
      "state": "TX",
      "zip": "77009",
      "street": "235 Essex Court",
      "id": 30
    }
  ]
}